ONEWEB-0706             
1 61611U 24188T   24343.83334491 -.01241748  00000+0 -58360+0 0  9998
2 61611  87.0339 150.4607 0005916  54.3591 354.2743 14.23564009  8345
ONEWEB-0707             
1 61612U 24188U   24343.83334491 -.00947019  00000+0 -42701+0 0  9994
2 61612  87.0393 150.4827 0006087  91.0109 220.1141 14.25378543  8287
ONEWEB-0708             
1 61613U 24188V   24343.58334491 -.01142950  00000+0 -51257+0 0  9995
2 61613  87.0346 150.5381 0006270  72.0801  89.6624 14.25742048  5763
